HODOYOSHI-4             
1 40011U 14033B   26194.18998523  .00000636  00000+0  74336-4 0  9995
2 40011  97.5454  17.7590 0022554 216.5533 143.4146 14.88184261652676
DEIMOS-2                
1 40013U 14033D   26194.17401413  .00000376  00000+0  40529-4 0  9991
2 40013  97.5802  67.7467 0000866  90.8034 269.3286 14.93790908641605
HODOYOSHI-3             
1 40015U 14033F   26193.91756169  .00000506  00000+0  64394-4 0  9996
2 40015  97.6442 355.9266 0031290 269.7598  90.0032 14.85434831651446
SPOT 7                  
1 40053U 14034A   26194.13872332  .00000008  00000+0  10785-4 0  9997
2 40053  98.0625 255.9600 0001590  96.7826 263.3556 14.60979232640928
SKYSAT-B                
1 40072U 14037D   26193.87895628  .00000641  00000+0  76424-4 0  9999
2 40072  98.3853 154.3116 0005393 179.8697 180.2520 14.88088942649783
WORLDVIEW-3 (WV-3)      
1 40115U 14048A   26194.17580852  .00000434  00000+0  57019-4 0  9992
2 40115  97.8557 268.6491 0001145 159.2981 200.8280 14.85062385645766
GAOFEN-2                
1 40118U 14049A   26194.18966194 -.00000156  00000+0 -13322-4 0  9996
2 40118  98.0105 258.3705 0008114 140.5221 219.6584 14.80924041643087
YAOGAN-21               
1 40143U 14053A   26194.18552407  .00005497  00000+0  21152-3 0  9997
2 40143  97.1464 233.3087 0007956  14.8798 345.2674 15.26744145658925
YAOGAN-22               
1 40275U 14063A   26193.89093965 -.00000050  00000+0 -93446-5 0  9999
2 40275 100.7758 345.5946 0006829 130.0121 230.1591 13.15531652563194
ASNARO                  
1 40298U 14070A   26194.16916797  .00005501  00000+0  25977-3 0  9996
2 40298  97.3450 269.5845 0006813  94.6215 265.5798 15.19811179647953
YAOGAN-24               
1 40310U 14072A   26194.17932082  .00000036  00000+0  12845-4 0  9998
2 40310  98.1514 331.7384 0014431 175.8868 184.2462 14.76116142627558
CBERS 4                 
1 40336U 14079A   26194.17537770 -.00000102  00000+0 -20746-4 0  9993
2 40336  98.3525 250.1898 0000865  53.0839 307.0426 14.35515231607689
YAOGAN-26               
1 40362U 14088A   26194.18641213  .00019187  00000+0  36341-3 0  9999
2 40362  97.0641 193.8049 0002241 351.6173   8.5040 15.48395631641725
SMAP                    
1 40376U 15003A   26194.13108313  .00000211  00000+0  49851-4 0  9995
2 40376  98.1283 200.8587 0001584  95.9375 264.2008 14.63388161611415
KOMPSAT-3A              
1 40536U 15014A   26194.18105992  .00021815  00000+0  30040-3 0  9992
2 40536  97.6883 187.4702 0056415  82.7234 278.0427 15.55343968625852
SENTINEL-2A             
1 40697U 15028A   26194.15874816 -.00000075  00000+0 -11924-4 0  9998
2 40697  98.5684 268.6405 0001265  96.2277 263.9050 14.30813759577449
GAOFEN-8                
1 40701U 15030A   26194.16479617  .00012535  00000+0  25063-3 0  9998
2 40701  97.6891  29.1116 0010004 101.8526 258.3846 15.46892125615463
CARBONITE 1 (CBNT-1)    
1 40718U 15032D   26194.21586205  .00000438  00000+0  59123-4 0  9990
2 40718  97.6516  11.1951 0013626 203.9221 156.1362 14.83663129593207
YAOGAN-27               
1 40878U 15040A   26194.17971337  .00000117  00000+0  41973-3 0  9992
2 40878 100.1160 179.4355 0008487 149.4906 210.6703 13.16071218521087
GAOFEN-9 01             
1 40894U 15047A   26194.17600161  .00000524  00000+0  70453-4 0  9999
2 40894  97.6271 228.6888 0028574  56.8394 303.5555 14.82932959584041
YAOGAN-28               
1 41026U 15064A   26194.19724772  .00004093  00000+0  15341-3 0  9992
2 41026  97.3102 331.9385 0012080  99.1485 261.1122 15.27743881594656
YAOGAN-29               
1 41038U 15069A   26194.22030787 -.00000220  00000+0 -20419-4 0  9993
2 41038  98.0025 222.8927 0000904  12.9833 347.1403 14.83103521574481
KENT RIDGE 1            
1 41167U 15077B   26193.89805858  .00002563  00000+0  73737-4 0  9997
2 41167  14.9801  74.7485 0008280 242.6265 117.3215 15.23276730585020
GAOFEN-4                
1 41194U 15083A   26194.08030728 -.00000337  00000+0  00000+0 0  9998
2 41194   0.4205  83.8159 0003975 125.7053 216.0326  1.00272713 38782
JASON-3                 
1 41240U 16002A   26194.17751806 -.00000022  00000+0  16012-3 0  9994
2 41240  66.0416  71.1945 0008203 271.1339  88.8739 12.87628539490593
SENTINEL-3A             
1 41335U 16011A   26194.16461399  .00000050  00000+0  38502-4 0  9992
2 41335  98.6238 261.1736 0001367  90.8487 269.2850 14.26739438541765
ZIYUAN 3-02 (ZY 3-02)   
1 41556U 16033A   26194.17074650  .00002996  00000+0  13622-3 0  9998
2 41556  97.3832 269.4453 0013853 191.9952 168.0956 15.21422865561939
CARTOSAT-2C             
1 41599U 16040A   26194.14286747  .00003784  00000+0  18254-3 0  9994
2 41599  97.4479 253.7612 0009708  52.0004 308.2106 15.19257704557650
SKYSAT-C1               
1 41601U 16040C   26192.63835800  .00005514  00000+0  15589-3 0  9991
2 41601  96.9557 223.0369 0000645 355.4804   4.6435 15.36708815561620
LAPAN-A3                
1 41603U 16040E   26194.16698662  .00002004  00000+0  64617-4 0  9994
2 41603  97.1497 189.4632 0008236 284.9406  75.0925 15.33270562558794
GAOFEN-3                
1 41727U 16049A   26194.17008556  .00000001  00000+0  13393-4 0  9998
2 41727  98.4015 201.5638 0001797  86.5104 273.6292 14.42218525522399
