OBJECT_NAME,OBJECT_ID,EPOCH,MEAN_MOTION,ECCENTRICITY,INCLINATION,RA_OF_ASC_NODE,ARG_OF_PERICENTER,MEAN_ANOMALY,EPHEMERIS_TYPE,CLASSIFICATION_TYPE,NORAD_CAT_ID,ELEMENT_SET_NO,REV_AT_EPOCH,BSTAR,MEAN_MOTION_DOT,MEAN_MOTION_DDOT
HODOYOSHI-4,2014-033B,2026-07-13T04:33:34.723872,14.88184261,.0022554,97.5454,17.7590,216.5533,143.4146,0,U,40011,999,65267,.74336E-4,.636E-5,0
DEIMOS-2,2014-033D,2026-07-13T04:10:34.820832,14.93790908,.0000866,97.5802,67.7467,90.8034,269.3286,0,U,40013,999,64160,.40529E-4,.376E-5,0
HODOYOSHI-3,2014-033F,2026-07-12T22:01:17.330016,14.85434831,.003129,97.6442,355.9266,269.7598,90.0032,0,U,40015,999,65144,.64394E-4,.506E-5,0
SPOT 7,2014-034A,2026-07-13T03:19:45.694848,14.60979232,.000159,98.0625,255.9600,96.7826,263.3556,0,U,40053,999,64092,.10785E-4,.8E-7,0
SKYSAT-B,2014-037D,2026-07-12T21:05:41.822592,14.88088942,.0005393,98.3853,154.3116,179.8697,180.2520,0,U,40072,999,64978,.76424E-4,.641E-5,0
WORLDVIEW-3 (WV-3),2014-048A,2026-07-13T04:13:09.856128,14.85062385,.0001145,97.8557,268.6491,159.2981,200.8280,0,U,40115,999,64576,.57019E-4,.434E-5,0
GAOFEN-2,2014-049A,2026-07-13T04:33:06.791616,14.80924041,.0008114,98.0105,258.3705,140.5221,219.6584,0,U,40118,999,64308,-.13322E-4,-.156E-5,0
YAOGAN-21,2014-053A,2026-07-13T04:27:09.279648,15.26744145,.0007956,97.1464,233.3087,14.8798,345.2674,0,U,40143,999,65892,.21152E-3,.5497E-4,0
YAOGAN-22,2014-063A,2026-07-12T21:22:57.185760,13.15531652,.0006829,100.7758,345.5946,130.0121,230.1591,0,U,40275,999,56319,-.93446E-5,-.5E-6,0
ASNARO,2014-070A,2026-07-13T04:03:36.112608,15.19811179,.0006813,97.3450,269.5845,94.6215,265.5798,0,U,40298,999,64795,.25977E-3,.5501E-4,0
YAOGAN-24,2014-072A,2026-07-13T04:18:13.318848,14.76116142,.0014431,98.1514,331.7384,175.8868,184.2462,0,U,40310,999,62755,.12845E-4,.36E-6,0
CBERS 4,2014-079A,2026-07-13T04:12:32.633280,14.35515231,.0000865,98.3525,250.1898,53.0839,307.0426,0,U,40336,999,60768,-.20746E-4,-.102E-5,0
YAOGAN-26,2014-088A,2026-07-13T04:28:26.008032,15.48395631,.0002241,97.0641,193.8049,351.6173,8.5040,0,U,40362,999,64172,.36341E-3,.19187E-3,0
SMAP,2015-003A,2026-07-13T03:08:45.582432,14.63388161,.0001584,98.1283,200.8587,95.9375,264.2008,0,U,40376,999,61141,.49851E-4,.211E-5,0
KOMPSAT-3A,2015-014A,2026-07-13T04:20:43.577088,15.55343968,.0056415,97.6883,187.4702,82.7234,278.0427,0,U,40536,999,62585,.3004E-3,.21815E-3,0
SENTINEL-2A,2015-028A,2026-07-13T03:48:35.841024,14.30813759,.0001265,98.5684,268.6405,96.2277,263.9050,0,U,40697,999,57744,-.11924E-4,-.75E-6,0
GAOFEN-8,2015-030A,2026-07-13T03:57:18.389088,15.46892125,.0010004,97.6891,29.1116,101.8526,258.3846,0,U,40701,999,61546,.25063E-3,.12535E-3,0
CARBONITE 1 (CBNT-1),2015-032D,2026-07-13T05:10:50.481120,14.83663129,.0013626,97.6516,11.1951,203.9221,156.1362,0,U,40718,999,59320,.59123E-4,.438E-5,0
YAOGAN-27,2015-040A,2026-07-13T04:18:47.235168,13.16071218,.0008487,100.1160,179.4355,149.4906,210.6703,0,U,40878,999,52108,.41973E-3,.117E-5,0
GAOFEN-9 01,2015-047A,2026-07-13T04:13:26.539104,14.82932959,.0028574,97.6271,228.6888,56.8394,303.5555,0,U,40894,999,58404,.70453E-4,.524E-5,0
YAOGAN-28,2015-064A,2026-07-13T04:44:02.203008,15.27743881,.001208,97.3102,331.9385,99.1485,261.1122,0,U,41026,999,59465,.15341E-3,.4093E-4,0
YAOGAN-29,2015-069A,2026-07-13T05:17:14.599968,14.83103521,.0000904,98.0025,222.8927,12.9833,347.1403,0,U,41038,999,57448,-.20419E-4,-.22E-5,0
KENT RIDGE 1,2015-077B,2026-07-12T21:33:12.261312,15.23276730,.000828,14.9801,74.7485,242.6265,117.3215,0,U,41167,999,58502,.73737E-4,.2563E-4,0
GAOFEN-4,2015-083A,2026-07-13T01:55:38.548992,1.00272713,.0003975,0.4205,83.8159,125.7053,216.0326,0,U,41194,999,3878,0,-.337E-5,0
JASON-3,2016-002A,2026-07-13T04:15:37.560384,12.87628539,.0008203,66.0416,71.1945,271.1339,88.8739,0,U,41240,999,49059,.16012E-3,-.22E-6,0
SENTINEL-3A,2016-011A,2026-07-13T03:57:02.648736,14.26739438,.0001367,98.6238,261.1736,90.8487,269.2850,0,U,41335,999,54176,.38502E-4,.5E-6,0
ZIYUAN 3-02 (ZY 3-02),2016-033A,2026-07-13T04:05:52.497600,15.21422865,.0013853,97.3832,269.4453,191.9952,168.0956,0,U,41556,999,56193,.13622E-3,.2996E-4,0
CARTOSAT-2C,2016-040A,2026-07-13T03:25:43.749408,15.19257704,.0009708,97.4479,253.7612,52.0004,308.2106,0,U,41599,999,55765,.18254E-3,.3784E-4,0
SKYSAT-C1,2016-040C,2026-07-11T15:19:14.131200,15.36708815,.0000645,96.9557,223.0369,355.4804,4.6435,0,U,41601,999,56162,.15588995E-3,.5514E-4,0
LAPAN-A3,2016-040E,2026-07-13T04:00:27.643968,15.33270562,.0008236,97.1497,189.4632,284.9406,75.0925,0,U,41603,999,55879,.64617E-4,.2004E-4,0
GAOFEN-3,2016-049A,2026-07-13T04:04:55.392384,14.42218525,.0001797,98.4015,201.5638,86.5104,273.6292,0,U,41727,999,52239,.13393E-4,.1E-7,0
